ONEWEB-0055             
1 45443U 20020V   22070.43565682 -.00000429  00000+0 -12459-2 0  9993
2 45443  87.8927 330.9754 0001920  85.4020 274.7327 13.11416030 98318
ONEWEB-0093             
1 45444U 20020W   22070.41098800  .00000453  00000+0  12437-2 0  9996
2 45444  87.8918 331.0123 0001923  86.7623 273.3725 13.11415853 98372
ONEWEB-0029             
1 45445U 20020X   22070.43341628 -.00000457  00000+0 -13267-2 0  9996
2 45445  87.8919 330.9915 0001571  93.9877 266.1430 13.11416115 98354
ONEWEB-0068             
1 45446U 20020Y   22070.47943215  .00000565  00000+0  15570-2 0  9998
2 45446  87.8917 330.9964 0002024  90.6132 269.5228 13.11416607 98302
ONEWEB-0046             
1 45447U 20020Z   22070.47606402  .00000544  00000+0  14995-2 0  9990
2 45447  87.8919 331.0051 0001573  79.2402 280.8903 13.11417399 98311
ONEWEB-0063             
1 45448U 20020AA  22070.42892649 -.00000272  00000+0 -80408-3 0  9999
2 45448  87.8911 331.0060 0001455  73.1744 286.9544 13.11415068 98392
ONEWEB-0019             
1 45449U 20020AB  22070.48055415  .00000471  00000+0  12941-2 0  9993
2 45449  87.8921 330.9850 0001809  75.4300 284.7029 13.11415869 98242
ONEWEB-0094             
1 45450U 20020AC  22070.42459722  .00000288  00000+0  70807-3 0  9990
2 45450  87.9083 315.7218 0001932  81.3902 278.7448 13.17650858101039
ONEWEB-0087             
1 45451U 20020AD  22070.43791138 -.00000556  00000+0 -16036-2 0  9995
2 45451  87.8924 331.0279 0001654  95.6769 264.4548 13.11413520 98283
ONEWEB-0082             
1 45452U 20020AE  22070.44014453 -.00000513  00000+0 -14842-2 0  9991
2 45452  87.8917 330.9690 0002031  95.4305 264.7055 13.11416775 98376
ONEWEB-0050             
1 45453U 20020AF  22070.81598696  .00001415  00000+0  12633-3 0  9996
2 45453  87.5349 271.6027 0024802 201.6613 158.3571 14.94961778107687
ONEWEB-0034             
1 45454U 20020AG  22070.45810427  .00000032  00000+0  53371-4 0  9995
2 45454  87.8917 330.9878 0001653  88.3550 271.7767 13.11419828 98299
ONEWEB-0060             
1 45455U 20020AH  22070.46708476  .00000418  00000+0  11439-2 0  9992
2 45455  87.8921 330.9918 0001620  81.0270 279.1041 13.11418471 98259
ONEWEB-0086             
1 45456U 20020AJ  22070.48504176  .00000424  00000+0  11604-2 0  9997
2 45456  87.8917 330.9817 0001816  88.5576 271.5760 13.11416270 98317
ONEWEB-0088             
1 45457U 20020AK  22070.46036600  .00000093  00000+0  22548-3 0  9990
2 45457  87.8915 331.0043 0001522  86.1903 273.9399 13.11418737 98247
ONEWEB-0102             
1 47258U 20100A   22070.38909960  .00000356  00000+0  95534-3 0  9996
2 47258  87.8834 300.5094 0001951  87.7299 272.4052 13.12443836 60266
ONEWEB-0109             
1 47259U 20100B   22070.40065833  .00000317  00000+0  84679-3 0  9997
2 47259  87.8949 300.4800 0001877  82.2715 277.8626 13.12443210 60091
ONEWEB-0110             
1 47260U 20100C   22070.34751150 -.00000302  00000+0 -87389-3 0  9993
2 47260  87.8884 300.4867 0002080  86.4181 273.7185 13.12442210 60256
ONEWEB-0111             
1 47261U 20100D   22070.37754840  .00000173  00000+0  44418-3 0  9996
2 47261  87.8858 300.5053 0001877  86.3522 273.7821 13.12445975 60097
ONEWEB-0114             
1 47262U 20100E   22070.33365173  .00000166  00000+0  42642-3 0  9999
2 47262  87.8920 300.4355 0001959  72.0380 288.0962 13.12440481 60044
ONEWEB-0117             
1 47263U 20100F   22070.32671103  .00000220  00000+0  57643-3 0  9990
2 47263  87.8943 300.4989 0001877  84.7614 275.3729 13.12444749 60054
ONEWEB-0118             
1 47264U 20100G   22070.35676259 -.00000452  00000+0 -12928-2 0  9996
2 47264  87.8877 300.4750 0001517  56.0686 304.0586 13.12443801 60250
ONEWEB-0119             
1 47265U 20100H   22070.38446754 -.00000094  00000+0 -29594-3 0  9995
2 47265  87.8832 300.5154 0001844  84.5679 275.5660 13.12442897 60239
ONEWEB-0120             
1 47266U 20100J   22070.33826991 -.00000005  00000+0 -49692-4 0  9990
2 47266  87.8906 300.5419 0001948  78.1615 281.9732 13.12440779 60250
ONEWEB-0121             
1 47267U 20100K   22070.39834329  .00000404  00000+0  10885-2 0  9992
2 47267  87.8876 300.5881 0001796  90.7219 269.4116 13.12441765 60175
ONEWEB-0122             
1 47268U 20100L   22070.39141362  .00000398  00000+0  10722-2 0  9993
2 47268  87.8915 300.4697 0001857  83.9560 276.1780 13.12442200 60082
ONEWEB-0123             
1 47269U 20100M   22070.38679445  .00000599  00000+0  16288-2 0  9997
2 47269  87.8847 300.5042 0002098  71.1908 288.9448 13.12441172 60220
ONEWEB-0124             
1 47270U 20100N   22070.37292458 -.00000044  00000+0 -15837-3 0  9990
2 47270  87.8885 300.4146 0001702  98.9227 261.2094 13.12444231 60107
ONEWEB-0125             
1 47271U 20100P   22070.35212330 -.00000394  00000+0 -11302-2 0  9990
2 47271  87.8848 300.5700 0001876  74.9345 285.1991 13.12440616 60161
ONEWEB-0126             
1 47272U 20100Q   22070.37639619  .00000055  00000+0  11719-3 0  9991
2 47272  87.8855 300.5536 0002001  81.3330 278.8025 13.12444038 60231
ONEWEB-0127             
1 47273U 20100R   22070.72176645 -.00000170  00000+0 -50770-3 0  9996
2 47273  87.8877 300.3624 0001685  81.8237 278.3083 13.12440783 60300
ONEWEB-0128             
1 47274U 20100S   22070.36138427 -.00000362  00000+0 -10414-2 0  9996
2 47274  87.8881 300.4700 0002061  92.5052 267.6312 13.12444991 60272
ONEWEB-0129             
1 47275U 20100T   22070.34288717 -.00000204  00000+0 -60338-3 0  9999
2 47275  87.8942 300.4844 0002888  49.9785 310.1596 13.12442772 60202
ONEWEB-0130             
1 47276U 20100U   22070.36830899 -.00000206  00000+0 -60834-3 0  9999
2 47276  87.8880 300.5208 0001850  88.3678 271.7662 13.12442894 60172
ONEWEB-0131             
1 47277U 20100V   22070.36601023 -.00000221  00000+0 -64932-3 0  9995
2 47277  87.8878 300.4682 0001700  90.2683 269.8640 13.12443034 60213
ONEWEB-0132             
1 47278U 20100W   22070.39602261  .00000434  00000+0  11719-2 0  9992
2 47278  87.8841 300.5263 0001916  76.2561 283.8780 13.12444303 60118
ONEWEB-0133             
1 47279U 20100X   22070.33595861  .00000054  00000+0  11348-3 0  9991
2 47279  87.8874 300.4624 0001799  82.3295 277.8037 13.12442971 60269
ONEWEB-0134             
1 47280U 20100Y   22070.37986209  .00000173  00000+0  44514-3 0  9990
2 47280  87.8889 300.4527 0001989  89.7457 270.3900 13.12442571 60242
ONEWEB-0135             
1 47281U 20100Z   22070.19734083 -.00000448  00000+0 -12794-2 0  9993
2 47281  87.8873 300.4795 0001975  84.3331 275.8023 13.12441956 60242
ONEWEB-0136             
1 47282U 20100AA  22070.37061210 -.00000141  00000+0 -42668-3 0  9993
2 47282  87.8928 300.4837 0002664  85.8754 274.2679 13.12444163 60199
ONEWEB-0137             
1 47283U 20100AB  22070.33134231  .00000238  00000+0  62656-3 0  9998
2 47283  87.8876 300.5065 0001830  75.0660 285.0671 13.12440196 60090
ONEWEB-0138             
1 47284U 20100AC  22070.38216068  .00000222  00000+0  58219-3 0  9996
2 47284  87.8899 300.4935 0002041  81.6404 278.4956 13.12445167 60180
ONEWEB-0139             
1 47285U 20100AD  22070.35443408 -.00000420  00000+0 -12035-2 0  9991
2 47285  87.8858 300.5813 0002080  86.9151 273.2216 13.12441050 60259
ONEWEB-0140             
1 47286U 20100AE  22070.37525228  .00000034  00000+0  59748-4 0  9998
2 47286  87.8856 300.5140 0001959  85.0697 275.0655 13.12444434 60223
ONEWEB-0141             
1 47287U 20100AF  22070.34871278 -.00000202  00000+0 -58521-3 0  9991
2 47287  87.8884 300.4847 0001871  86.5707 273.5636 13.13927754 60201
ONEWEB-0142             
1 47288U 20100AG  22070.38795396  .00000294  00000+0  78083-3 0  9996
2 47288  87.8844 300.5784 0001955  74.6248 285.5096 13.12440926 60203
ONEWEB-0143             
1 47289U 20100AH  22070.34521145 -.00000192  00000+0 -56923-3 0  9990
2 47289  87.8876 300.4979 0001759  85.0287 275.1043 13.12443592 60170
ONEWEB-0144             
1 47290U 20100AJ  22070.39372234  .00000412  00000+0  11102-2 0  9992
2 47290  87.8921 300.4523 0001886  88.7175 271.4169 13.12443706 60103
ONEWEB-0145             
1 47291U 20100AK  22070.36368649 -.00000249  00000+0 -72834-3 0  9995
2 47291  87.8853 300.4922 0001832  81.0655 279.0681 13.12443779 60294
ONEWEB-0146             
1 47292U 20100AL  22070.35906330 -.00000390  00000+0 -11208-2 0  9994
2 47292  87.8892 300.5154 0001351 120.0079 240.1184 13.12443953 60208
ONEWEB-0147             
1 47293U 20100AM  22070.32905591  .00000346  00000+0  92564-3 0  9994
2 47293  87.8856 300.5252 0002487  80.4245 279.7165 13.12441500 60093
ONEWEB-0115             
1 48042U 21025A   22070.81087979 -.00000262  00000+0 -75167-3 0  9998
2 48042  87.8854 269.7518 0001865 101.5346 258.5993 13.13470342 49033
ONEWEB-0152             
1 48043U 21025B   22070.51737414 -.00000070  00000+0 -22660-3 0  9999
2 48043  87.8905 269.8439 0001907  93.7407 266.3941 13.13470722 48942
ONEWEB-0153             
1 48044U 21025C   22070.79969201 -.00000206  00000+0 -59865-3 0  9999
2 48044  87.8838 269.9156 0001640  86.6690 273.4627 13.13472058 48982
ONEWEB-0154             
1 48045U 21025D   22070.49272289 -.00000968  00000+0 -26853-2 0  9995
2 48045  87.8932 269.8923 0001987  82.4270 277.7085 13.13467051 48893
ONEWEB-0116             
1 48046U 21025E   22070.45912695  .00000343  00000+0  90381-3 0  9997
2 48046  87.8928 269.8891 0001464 103.2575 256.8718 13.13469926 49034
ONEWEB-0150             
1 48047U 21025F   22070.81312237 -.00000226  00000+0 -65348-3 0  9991
2 48047  87.8810 269.7198 0001681  78.9031 281.2287 13.13471117 48970
ONEWEB-0107             
1 48048U 21025G   22070.81535846 -.00000181  00000+0 -52966-3 0  9997
2 48048  87.8838 269.7317 0001907  72.8089 287.3249 13.13470057 48956
ONEWEB-0101             
1 48049U 21025H   22070.47480641  .00000170  00000+0  42996-3 0  9990
2 48049  87.8832 269.8530 0001946  86.6621 273.4730 13.13470140 48883
